SKYNET 5D               
1 39034U 12075A   25066.05296711  .00000087  00000+0  00000+0 0  9997
2 39034   0.0673 345.8201 0003819 359.0314 251.9512  1.00274766 44833
MEXSAT 3                
1 39035U 12075B   25065.35449899 -.00000035  00000+0  00000+0 0  9991
2 39035   0.0094 147.0249 0001957 177.1716 212.9213  1.00271260  2364
TDRS 11                 
1 39070U 13004A   25066.07937873  .00000069  00000+0  00000+0 0  9993
2 39070   2.9340  20.3930 0004368  15.3625 343.5808  1.00277829 44307
AMAZONAS 3              
1 39078U 13006A   25064.52406057 -.00000289  00000+0  00000+0 0  9991
2 39078   0.0475 239.8437 0002793  71.1388 340.1868  1.00272412 40216
AZERSPACE 1             
1 39079U 13006B   25066.14834238  .00000121  00000+0  00000+0 0  9992
2 39079   0.0150 210.5850 0001636 166.4833 247.4234  1.00273455 44241
SBIRS GEO-2 (USA 241)   
1 39120U 13011A   25065.35810558 -.00000295  00000+0  00000+0 0  9999
2 39120   3.4961  50.5378 0002189 294.8707 258.0266  1.00271600 43840
EUTELSAT 117 WEST A     
1 39122U 13012A   25066.09076005 -.00000025  00000+0  00000+0 0  9996
2 39122   0.0445 301.0438 0002981  48.2305  91.6346  1.00273019 43787
ANIK G1                 
1 39127U 13014A   25065.37134394 -.00000083  00000+0  00000+0 0  9993
2 39127   0.0456 271.8424 0002938  46.4881 232.3700  1.00271239 43560
ZHONGXING-11            
1 39157U 13020A   25066.06200266 -.00000302  00000+0  00000+0 0  9996
2 39157   0.0246 258.7464 0005954  57.8778 328.6100  1.00271370 43468
EUTELSAT 7B             
1 39163U 13022A   25064.30878093  .00000041  00000+0  00000+0 0  9998
2 39163   0.0670 347.7829 0006195   5.6713 287.9666  1.00271655 43255
WGS F5 (USA 243)        
1 39168U 13024A   25066.09770172 -.00000296  00000+0  00000+0 0  9995
2 39168   0.0182 151.9688 0000477 165.1754 190.5510  1.00273243 43140
SES-6                   
1 39172U 13026A   25065.32927170 -.00000271  00000+0  00000+0 0  9992
2 39172   0.0514 303.8274 0002172  38.4030 260.0915  1.00271824 43039
IRNSS-1A                
1 39199U 13034A   25064.10183778  .00000074  00000+0  00000+0 0  9993
2 39199  34.6681  70.6314 0018443 189.1451 355.0406  1.00270936 42660
MUOS-2                  
1 39206U 13036A   25065.71589083  .00000055  00000+0  00000+0 0  9990
2 39206   4.0898  43.4411 0051052 183.7050  18.2279  1.00271747 42504
ALPHASAT                
1 39215U 13038A   25065.74510039  .00000124  00000+0  00000+0 0  9997
2 39215   2.9259   5.2386 0001749 344.8312 107.7328  1.00270617 39339
INSAT-3D                
1 39216U 13038B   25064.58586484 -.00000348  00000+0  00000+0 0  9995
2 39216   0.7121  89.0551 0002049 218.9505 195.8859  1.00266090 42383
WGS F6 (USA 244)        
1 39222U 13041A   25065.23853696  .00000080  00000+0  00000+0 0  9993
2 39222   0.0223 141.8696 0000509 122.5560 210.4518  1.00271663 41368
ES'HAIL 1               
1 39233U 13044A   25065.74480097  .00000132  00000+0  00000+0 0  9993
2 39233   0.0534 353.9051 0002740 354.0451 110.3544  1.00271962 41949
GSAT-7                  
1 39234U 13044B   25065.71974578 -.00000088  00000+0  00000+0 0  9994
2 39234   0.0172 165.1339 0009182 120.7609 211.8841  1.00271704 40579
AMOS-4                  
1 39237U 13045A   25065.77785215 -.00000004  00000+0  00000+0 0  9990
2 39237   0.0431 249.3832 0003670 104.0032 156.3686  1.00271607 42275
AEHF-3 (USA 246)        
1 39256U 13050A   25065.54694736  .00000020  00000+0  00000+0 0  9996
2 39256   4.1322  71.1596 0089747 179.1983 346.8109  1.00269733 40962
ASTRA 2E                
1 39285U 13056A   25065.74700488  .00000139  00000+0  00000+0 0  9999
2 39285   0.0885 310.0070 0002902  32.3782 119.6908  1.00271414 41738
FM-6                    
1 39360U 13058A   25064.45114197 -.00000024  00000+0  00000+0 0  9992
2 39360   0.0212 233.6119 0000195 355.2665 340.7935  1.00271036 41646
RADUGA-1M 3             
1 39375U 13062A   25065.75231132  .00000143  00000+0  00000+0 0  9997
2 39375   4.7700  78.1353 0000432 309.3159  83.0939  1.00273251 41427
SES-8                   
1 39460U 13071A   25066.06139450 -.00000281  00000+0  00000+0 0  9991
2 39460   0.0387 267.3261 0001620  97.2117 277.5814  1.00271458 41181
INMARSAT 5-F1           
1 39476U 13073A   25065.77565187  .00000017  00000+0  00000+0 0  9993
2 39476   0.0238  86.2679 0000619 191.2331 229.0437  1.00270816 40903
TKSAT-1 (TUPAC KATARI)  
1 39481U 13075A   25064.37058826 -.00000201  00000+0  00000+0 0  9999
2 39481   0.0289  83.6737 0003223 252.6196 233.2502  1.00271799 40895
EXPRESS-AM5             
1 39487U 13077A   25064.64072389 -.00000288  00000+0  00000+0 0  9992
2 39487   0.0153 198.7757 0000944 137.9880 197.5277  1.00271617 41669
GSAT-14                 
1 39498U 14001A   25066.05722425 -.00000089  00000+0  00000+0 0  9991
2 39498   0.0628 268.2158 0005988  21.4417 329.9370  1.00271548 40894
THAICOM 6               
1 39500U 14002A   25066.05809304 -.00000134  00000+0  00000+0 0  9999
2 39500   0.0354 130.5737 0001280 263.9580 229.9200  1.00273766 40832
TDRS 12                 
1 39504U 14004A   25065.53841402 -.00000278  00000+0  00000+0 0  9991
2 39504   3.6235   9.6700 0002705 258.7289  48.9127  1.00277373 39585
ABS-2                   
1 39508U 14006A   25066.05739801 -.00000097  00000+0  00000+0 0  9993
2 39508   0.0397 271.7430 0003300  65.2686 283.5584  1.00271576 40636
ATHENA-FIDUS            
1 39509U 14006B   25065.75471635  .00000143  00000+0  00000+0 0  9999
2 39509   0.0108 176.9860 0001452 189.1944 108.0242  1.00273791 40395
TURKSAT 4A              
1 39522U 14007A   25065.75802501  .00000135  00000+0  00000+0 0  9996
2 39522   0.0681 282.4462 0004550  22.6032 174.5228  1.00271071 40287
EXPRESS-AT1             
1 39612U 14010A   25066.05366215  .00000067  00000+0  00000+0 0  9995
2 39612   0.0170 182.7350 0000796  87.0418 330.5323  1.00270747 40367
EXPRESS-AT2             
1 39613U 14010B   25065.40824111 -.00000292  00000+0  00000+0 0  9999
2 39613   0.0170 181.3023 0001078  95.7536 174.1194  1.00271142 39806
AMAZONAS 4A             
1 39616U 14011A   25065.33074506 -.00000261  00000+0  00000+0 0  9996
2 39616   0.0608 209.7507 0002763 106.6782 252.8992  1.00270278 40029
ASTRA 5B                
1 39617U 14011B   25065.74369240  .00000126  00000+0  00000+0 0  9993
2 39617   0.0557 332.8290 0003845 349.3833 133.6690  1.00270289 39981
IRNSS-1B                
1 39635U 14017A   25064.10114079  .00000118  00000+0  00000+0 0  9997
2 39635  28.9310 248.3911 0021209 182.1370 183.9745  1.00269013 40086
LUCH-5V                 
1 39727U 14023A   25066.06130762 -.00000281  00000+0  00000+0 0  9992
2 39727   3.9638  74.0763 0002793 273.8017 293.8901  1.00274855557826
KAZSAT-3                
1 39728U 14023B   25066.05418343  .00000047  00000+0  00000+0 0  9995
2 39728   0.0258  76.5228 0000369 227.6287 298.8594  1.00281015 39755
EUTELSAT 3B             
1 39773U 14030A   25064.30878093  .00000014  00000+0  00000+0 0  9995
2 39773   0.0636 352.9806 0002009 252.4399  32.1243  1.00274225 39363
ASIASAT 8 (AMOS-7)      
1 40107U 14046A   25064.25808759  .00000097  00000+0  00000+0 0  9992
2 40107   0.0475 289.8843 0002612 350.9618 339.2304  1.00852806 97443
ASIASAT 6               
1 40141U 14052A   25065.34261250 -.00000372  00000+0  00000+0 0  9994
2 40141   0.0305 276.9575 0000878  61.5114  69.0675  1.00270261 38375
OPTUS 10                
1 40146U 14054A   25065.50080606 -.00000160  00000+0  00000+0 0  9998
2 40146   0.1140 321.9276 0002800   8.3278 170.4551  1.00260828 38349
MEASAT-3B               
1 40147U 14054B   25066.06069946 -.00000253  00000+0  00000+0 0  9998
2 40147   0.0406  40.7851 0003258 344.4268 253.1512  1.00271535 38488
LUCH (OLYMP-K 1)        
1 40258U 14058A   25065.47666588 -.00000152  00000+0  00000+0 0  9992
2 40258   0.6835  88.2737 0004665 252.6991 336.9383  1.00270853 38241
HIMAWARI-8              
1 40267U 14060A   25065.40824079 -.00000287  00000+0  00000+0 0  9998
2 40267   0.0219 260.0682 0000730  84.0102 107.8732  1.00266965 38051
IRNSS-1C                
1 40269U 14061A   25066.05904873 -.00000175  00000+0  00000+0 0  9990
2 40269   5.3272  98.5449 0019459   1.2468 169.5131  1.00273311 38140
INTELSAT 30 (IS-30)     
1 40271U 14062A   25065.33504197 -.00000160  00000+0  00000+0 0  9993
2 40271   0.0251  73.5683 0000935 337.0630 139.2052  1.00271200  2091
ARSAT 1                 
1 40272U 14062B   25065.04051736 -.00000268  00000+0  00000+0 0  9997
2 40272   0.0369  73.2063 0001468 254.8542 138.7165  1.00270857 37927
EXPRESS-AM6             
1 40277U 14064A   25066.05305398  .00000087  00000+0  00000+0 0  9990
2 40277   0.0168 182.4818 0001632 135.3132 279.2946  1.00268792 37980
GSAT-16                 
1 40332U 14078A   25065.00843286  .00000076  00000+0  00000+0 0  9992
2 40332   0.0178 231.9424 0003782 213.5076 136.6475  1.00272172 37418
DIRECTV 14              
1 40333U 14078B   25064.42753125 -.00000133  00000+0  00000+0 0  9995
2 40333   0.0409 329.0306 0000452 255.4782 353.5657  1.00272458 37547
YAMAL 401               
1 40345U 14082A   25066.06035193 -.00000239  00000+0  00000+0 0  9990
2 40345   0.0143 111.2909 0000475 154.5081  10.8759  1.00268706 37728
ASTRA 2G                
1 40364U 14089A   25064.98635390  .00000141  00000+0  00000+0 0  9993
2 40364   0.0499 342.6757 0004030  42.4497 162.0717  1.00272015 37329
FENGYUN 2G              
1 40367U 14090A   25066.06226331 -.00000310  00000+0  00000+0 0  9999
2 40367   4.4510  78.4742 0001031 133.5942  74.6527  1.00262641 37351
MUOS-3                  
1 40374U 15002A   25064.31989100 -.00000134  00000+0  00000+0 0  9991
2 40374   3.6587  39.5812 0053860 184.2413  39.1760  1.00271328 36887
INMARSAT 5-F2           
1 40384U 15005A   25065.30337406 -.00000295  00000+0  00000+0 0  9999
2 40384   0.0184  96.8497 0004606 227.5762 254.1019  1.00271690 36304
